{
  "norad_id": 68634,
  "name": "STP-S29A OBJECT H",
  "history": [
    {
      "epoch": "2026-04-18T12:50:54.513888Z",
      "apogee_km": 502.89716925356515,
      "perigee_km": 476.29843237002024,
      "latitude_deg": 6.0238672369729875e-05,
      "longitude_deg": 7.524638181882369,
      "height_km": 478.33313454661976,
      "semi_major_axis_km": 6867.734800811792,
      "eccentricity": 0.0019365,
      "inclination_deg": 60.0224,
      "raan_deg": 46.9047,
      "arg_perigee_deg": 345.406,
      "mean_anomaly_deg": 14.646,
      "mean_motion_rev_day": 15.25395593
    }
  ]
}